{"type": "FeatureCollection", "features": [ {"type": "Feature", "properties": {"norad_id": 30846, "name": "FENGYUN 1C DEB", "group": "fengyun-1c-debris", "lat": 25.86205359556463, "lon": -1.666392433222889, "alt_km": 783.9504454296057, "timestamp": "2025-12-25T09:48:52.569212+00:00", "meta": {"OBJECT_NAME": "FENGYUN 1C DEB", "OBJECT_ID": "1999-025AWG", "EPOCH": "2025-12-23T06:18:07.356096", "MEAN_MOTION": 14.41591186, "ECCENTRICITY": 0.00539356, "INCLINATION": 99.3211, "RA_OF_ASC_NODE": 171.4269, "ARG_OF_PERICENTER": 305.526, "MEAN_ANOMALY": 235.7251, "EPHEMERIS_TYPE": 0, "CLASSIFICATION_TYPE": "U", "NORAD_CAT_ID": 30846, "ELEMENT_SET_NO": 999, "REV_AT_EPOCH": 98081, "BSTAR": 0.0007453984, "MEAN_MOTION_DOT": 2.415e-05, "MEAN_MOTION_DDOT": 0}, "tle": {"line1": "1 30846U 99025AWG 25357.26258514  .00002415  00000+0  74540-3 0  9995", "line2": "2 30846  99.3211 171.4269 0053935 305.5260 235.7251 14.41591186980815"}}, "geometry": {"type": "Point", "coordinates": [-1.666392433222889, 25.86205359556463]}}, {"type": "Feature", "properties": {"norad_id": 30847, "name": "FENGYUN 1C DEB", "group": "fengyun-1c-debris", "lat": -8.295713578621886, "lon": -21.946545574706473, "alt_km": 849.7714579221911, "timestamp": "2025-12-25T09:48:52.569223+00:00", "meta": {"OBJECT_NAME": "FENGYUN 1C DEB", "OBJECT_ID": "1999-025AWH", "EPOCH": "2025-12-24T09:20:18.218400", "MEAN_MOTION": 14.17103703, "ECCENTRICITY": 0.00657959, "INCLINATION": 98.7321, "RA_OF_ASC_NODE": 158.3361, "ARG_OF_PERICENTER": 294.6027, "MEAN_ANOMALY": 94.5153, "EPHEMERIS_TYPE": 0, "CLASSIFICATION_TYPE": "U", "NORAD_CAT_ID": 30847, "ELEMENT_SET_NO": 999, "REV_AT_EPOCH": 96220, "BSTAR": 0.0019856738, "MEAN_MOTION_DOT": 4.041e-05, "MEAN_MOTION_DDOT": 0}, "tle": {"line1": "1 30847U 99025AWH 25358.38909975  .00004041  00000+0  19857-2 0  9990", "line2": "2 30847  98.7321 158.3361 0065795 294.6027  94.5153 14.17103703962206"}}, "geometry": {"type": "Point", "coordinates": [-21.946545574706473, -8.295713578621886]}}, {"type": "Feature", "properties": {"norad_id": 30848, "name": "FENGYUN 1C DEB", "group": "fengyun-1c-debris", "lat": 5.296302408472998, "lon": -165.99025142575567, "alt_km": 766.2860594820622, "timestamp": "2025-12-25T09:48:52.569234+00:00", "meta": {"OBJECT_NAME": "FENGYUN 1C DEB", "OBJECT_ID": "1999-025AWJ", "EPOCH": "2025-12-24T12:01:43.212576", "MEAN_MOTION": 14.34555484, "ECCENTRICITY": 0.00435565, "INCLINATION": 99.0594, "RA_OF_ASC_NODE": 193.906, "ARG_OF_PERICENTER": 301.431, "MEAN_ANOMALY": 58.2618, "EPHEMERIS_TYPE": 0, "CLASSIFICATION_TYPE": "U", "NORAD_CAT_ID": 30848, "ELEMENT_SET_NO": 999, "REV_AT_EPOCH": 97475, "BSTAR": 0.0011922202, "MEAN_MOTION_DOT": 3.354e-05, "MEAN_MOTION_DDOT": 0}, "tle": {"line1": "1 30848U 99025AWJ 25358.50119459  .00003354  00000+0  11922-2 0  9996", "line2": "2 30848  99.0594 193.9060 0043556 301.4310  58.2618 14.34555484974759"}}, "geometry": {"type": "Point", "coordinates": [-165.99025142575567, 5.296302408472998]}}, {"type": "Feature", "properties": {"norad_id": 30849, "name": "FENGYUN 1C DEB", "group": "fengyun-1c-debris", "lat": 64.11437329936989, "lon": 40.49863948671524, "alt_km": 826.468516884157, "timestamp": "2025-12-25T09:48:52.569244+00:00", "meta": {"OBJECT_NAME": "FENGYUN 1C DEB", "OBJECT_ID": "1999-025AWK", "EPOCH": "2025-12-24T03:10:55.933248", "MEAN_MOTION": 14.18915967, "ECCENTRICITY": 0.00479615, "INCLINATION": 99.0468, "RA_OF_ASC_NODE": 58.3637, "ARG_OF_PERICENTER": 332.7889, "MEAN_ANOMALY": 56.2512, "EPHEMERIS_TYPE": 0, "CLASSIFICATION_TYPE": "U", "NORAD_CAT_ID": 30849, "ELEMENT_SET_NO": 999, "REV_AT_EPOCH": 96534, "BSTAR": 0.0013435707, "MEAN_MOTION_DOT": 2.786e-05, "MEAN_MOTION_DDOT": 0}, "tle": {"line1": "1 30849U 99025AWK 25358.13259182  .00002786  00000+0  13436-2 0  9994", "line2": "2 30849  99.0468  58.3637 0047961 332.7889  56.2512 14.18915967965340"}}, "geometry": {"type": "Point", "coordinates": [40.49863948671524, 64.11437329936989]}}, {"type": "Feature", "properties": {"norad_id": 30850, "name": "FENGYUN 1C DEB", "group": "fengyun-1c-debris", "lat": -58.741302665789476, "lon": 30.117091924397634, "alt_km": 828.9077660602297, "timestamp": "2025-12-25T09:48:52.569254+00:00", "meta": {"OBJECT_NAME": "FENGYUN 1C DEB", "OBJECT_ID": "1999-025AWL", "EPOCH": "2025-12-24T14:21:57.281760", "MEAN_MOTION": 14.1637088, "ECCENTRICITY": 0.0109163, "INCLINATION": 98.3939, "RA_OF_ASC_NODE": 223.4306, "ARG_OF_PERICENTER": 163.0232, "MEAN_ANOMALY": 265.8155, "EPHEMERIS_TYPE": 0, "CLASSIFICATION_TYPE": "U", "NORAD_CAT_ID": 30850, "ELEMENT_SET_NO": 999, "REV_AT_EPOCH": 95966, "BSTAR": 0.0018118887, "MEAN_MOTION_DOT": 3.775e-05, "MEAN_MOTION_DDOT": 0}, "tle": {"line1": "1 30850U 99025AWL 25358.59857965  .00003775  00000+0  18119-2 0  9991", "line2": "2 30850  98.3939 223.4306 0109163 163.0232 265.8155 14.16370880959661"}}, "geometry": {"type": "Point", "coordinates": [30.117091924397634, -58.741302665789476]}}, {"type": "Feature", "properties": {"norad_id": 30852, "name": "FENGYUN 1C DEB", "group": "fengyun-1c-debris", "lat": -50.04633344617305, "lon": 27.367673690948905, "alt_km": 879.4880668007254, "timestamp": "2025-12-25T09:48:52.569264+00:00", "meta": {"OBJECT_NAME": "FENGYUN 1C DEB", "OBJECT_ID": "1999-025AWN", "EPOCH": "2025-12-24T18:43:57.823968", "MEAN_MOTION": 14.10303864, "ECCENTRICITY": 0.00563032, "INCLINATION": 98.7331, "RA_OF_ASC_NODE": 16.1846, "ARG_OF_PERICENTER": 200.1468, "MEAN_ANOMALY": 159.748, "EPHEMERIS_TYPE": 0, "CLASSIFICATION_TYPE": "U", "NORAD_CAT_ID": 30852, "ELEMENT_SET_NO": 999, "REV_AT_EPOCH": 96552, "BSTAR": 0.00043887864, "MEAN_MOTION_DOT": 7.47e-06, "MEAN_MOTION_DDOT": 0}, "tle": {"line1": "1 30852U 99025AWN 25358.78053037  .00000747  00000+0  43888-3 0  9990", "line2": "2 30852  98.7331  16.1846 0056303 200.1468 159.7480 14.10303864965526"}}, "geometry": {"type": "Point", "coordinates": [27.367673690948905, -50.04633344617305]}}, {"type": "Feature", "properties": {"norad_id": 30856, "name": "FENGYUN 1C DEB", "group": "fengyun-1c-debris", "lat": -54.498667859579264, "lon": -164.536965568675, "alt_km": 758.9262871049141, "timestamp": "2025-12-25T09:48:52.569274+00:00", "meta": {"OBJECT_NAME": "FENGYUN 1C DEB", "OBJECT_ID": "1999-025AWS", "EPOCH": "2025-12-24T11:07:04.348128", "MEAN_MOTION": 14.46570184, "ECCENTRICITY": 0.00873355, "INCLINATION": 98.2024, "RA_OF_ASC_NODE": 182.8814, "ARG_OF_PERICENTER": 203.0018, "MEAN_ANOMALY": 218.7229, "EPHEMERIS_TYPE": 0, "CLASSIFICATION_TYPE": "U", "NORAD_CAT_ID": 30856, "ELEMENT_SET_NO": 999, "REV_AT_EPOCH": 96695, "BSTAR": 0.00535508, "MEAN_MOTION_DOT": 0.00020251, "MEAN_MOTION_DDOT": 0}, "tle": {"line1": "1 30856U 99025AWS 25358.46324477  .00020251  00000+0  53551-2 0  9997", "line2": "2 30856  98.2024 182.8814 0087335 203.0018 218.7229 14.46570184966957"}}, "geometry": {"type": "Point", "coordinates": [-164.536965568675, -54.498667859579264]}}, {"type": "Feature", "properties": {"norad_id": 30857, "name": "FENGYUN 1C DEB", "group": "fengyun-1c-debris", "lat": 19.522432556874822, "lon": -13.188968642689781, "alt_km": 735.0711751180897, "timestamp": "2025-12-25T09:48:52.569283+00:00", "meta": {"OBJECT_NAME": "FENGYUN 1C DEB", "OBJECT_ID": "1999-025AWT", "EPOCH": "2025-12-23T04:47:46.082688", "MEAN_MOTION": 14.51842039, "ECCENTRICITY": 0.00407608, "INCLINATION": 98.9722, "RA_OF_ASC_NODE": 347.6644, "ARG_OF_PERICENTER": 263.7101, "MEAN_ANOMALY": 95.9448, "EPHEMERIS_TYPE": 0, "CLASSIFICATION_TYPE": "U", "NORAD_CAT_ID": 30857, "ELEMENT_SET_NO": 999, "REV_AT_EPOCH": 96875, "BSTAR": 0.0044417338, "MEAN_MOTION_DOT": 0.00018071, "MEAN_MOTION_DDOT": 0}, "tle": {"line1": "1 30857U 99025AWT 25357.19983892  .00018071  00000+0  44417-2 0  9997", "line2": "2 30857  98.9722 347.6644 0040760 263.7101  95.9448 14.51842039968754"}}, "geometry": {"type": "Point", "coordinates": [-13.188968642689781, 19.522432556874822]}}, {"type": "Feature", "properties": {"norad_id": 30858, "name": "FENGYUN 1C DEB", "group": "fengyun-1c-debris", "lat": -80.0731466381388, "lon": 119.15758706573247, "alt_km": 860.8001605089694, "timestamp": "2025-12-25T09:48:52.569294+00:00", "meta": {"OBJECT_NAME": "FENGYUN 1C DEB", "OBJECT_ID": "1999-025AWU", "EPOCH": "2025-12-24T19:18:34.605216", "MEAN_MOTION": 14.17798951, "ECCENTRICITY": 0.00305275, "INCLINATION": 98.7976, "RA_OF_ASC_NODE": 56.3223, "ARG_OF_PERICENTER": 76.289, "MEAN_ANOMALY": 355.4028, "EPHEMERIS_TYPE": 0, "CLASSIFICATION_TYPE": "U", "NORAD_CAT_ID": 30858, "ELEMENT_SET_NO": 999, "REV_AT_EPOCH": 97151, "BSTAR": 0.00035286152, "MEAN_MOTION_DOT": 6.79e-06, "MEAN_MOTION_DDOT": 0}, "tle": {"line1": "1 30858U 99025AWU 25358.80456719  .00000679  00000+0  35286-3 0  9990", "line2": "2 30858  98.7976  56.3223 0030527  76.2890 355.4028 14.17798951971514"}}, "geometry": {"type": "Point", "coordinates": [119.15758706573247, -80.0731466381388]}}, {"type": "Feature", "properties": {"norad_id": 30859, "name": "FENGYUN 1C DEB", "group": "fengyun-1c-debris", "lat": -17.030813863876197, "lon": 53.009207325174714, "alt_km": 711.2223619802007, "timestamp": "2025-12-25T09:48:52.569304+00:00", "meta": {"OBJECT_NAME": "FENGYUN 1C DEB", "OBJECT_ID": "1999-025AWV", "EPOCH": "2025-12-24T09:02:22.660224", "MEAN_MOTION": 14.49284141, "ECCENTRICITY": 0.0030658, "INCLINATION": 98.9207, "RA_OF_ASC_NODE": 49.1605, "ARG_OF_PERICENTER": 354.1409, "MEAN_ANOMALY": 5.942, "EPHEMERIS_TYPE": 0, "CLASSIFICATION_TYPE": "U", "NORAD_CAT_ID": 30859, "ELEMENT_SET_NO": 999, "REV_AT_EPOCH": 97203, "BSTAR": 0.002757114, "MEAN_MOTION_DOT": 0.00010546, "MEAN_MOTION_DDOT": 0}, "tle": {"line1": "1 30859U 99025AWV 25358.37665116  .00010546  00000+0  27571-2 0  9997", "line2": "2 30859  98.9207  49.1605 0030658 354.1409   5.9420 14.49284141972034"}}, "geometry": {"type": "Point", "coordinates": [53.009207325174714, -17.030813863876197]}}]}